YAOGAN 7                
1 36110U 09069A   17346.45919524  .00000078  00000-0  19673-4 0  9990
2 36110  98.2320 148.1734 0022940 264.8151  95.0438 14.75090133431166
